{
"type": "FeatureCollection",
"name": "carte_jour_4",
"crs": { "type": "name", "properties": { "name": "urn:ogc:def:crs:OGC:1.3:CRS84" } },
"features": [
{ "type": "Feature", "properties": { "fid": 1, "id": 1, "Phenomene": "G", "Seuil_code": "G>40km/h", "Seuil_val": 40.0, "Unite": "Km/h", "Echeance": "J4", "Date_val": "2026-08-13", "Couleur_ph": "#e4f520", "Commentair": "Zone de vent fort: Attention à la navigation !", "FF>60km:h_prob": null, "layer": "FF>40km:h", "path": "/Users/user/Desktop/RSMC/Afrique de l'ouest/SWFDP/FF_40km_h.shp" }, "geometry": { "type": "MultiPolygon", "coordinates": [ [ [ [ -20.043486643983808, 21.771512544281386 ], [ -19.826967153098327, 22.493244180566322 ], [ -19.393928171327367, 22.709763671451803 ], [ -18.816542862299418, 22.781936835080298 ], [ -17.950464898757495, 22.781936835080298 ], [ -17.300906426101054, 21.410646726138921 ], [ -16.867867444330091, 20.400222435340012 ], [ -17.300906426101054, 19.461971308169595 ], [ -18.022638062385987, 18.595893344627672 ], [ -18.744369698670923, 18.379373853742191 ], [ -19.971313480355313, 19.101105490027127 ], [ -20.404352462126276, 19.822837126312063 ], [ -20.043486643983808, 21.771512544281386 ] ] ] ] } },
{ "type": "Feature", "properties": { "fid": 2, "id": 4, "Phenomene": "Hs", "Seuil_code": "Hs>2m", "Seuil_val": 2.0, "Unite": "m", "Echeance": "J4", "Date_val": "2026-08-15", "Couleur_ph": "#d963d7", "Commentair": "Zone de forte houle: vigilance !", "FF>60km:h_prob": null, "layer": "Hs>2m", "path": "/Users/user/Desktop/RSMC/Afrique de l'ouest/SWFDP/Hs_2m.shp" }, "geometry": { "type": "MultiPolygon", "coordinates": [ [ [ [ -36.023407637912889, -1.227677754123796 ], [ -35.244653152929558, 0.427175526465781 ], [ -34.465898667946227, 1.984684496432443 ], [ -32.519012455487896, 4.02891501951369 ], [ -29.403994515554576, 5.878456921349098 ], [ -24.926156226900424, 6.657211406332429 ], [ -20.935039491360854, 6.559867095709514 ], [ -18.014710172673364, 4.807669504497021 ], [ -15.970479649592122, 3.055471913284521 ], [ -12.076707224675467, 2.082028807055359 ], [ -8.864344974119227, 1.400618632694943 ], [ -5.944015655431738, 1.692651564563697 ], [ -4.775883927956741, 2.568750360169943 ], [ -3.218374957990079, 3.542193466399105 ], [ -1.368833056154671, 4.320947951382436 ], [ 0.188675913811991, 4.320947951382436 ], [ 3.401038164368231, 2.958127602661605 ], [ 4.666514202466146, 1.692651564563697 ], [ 5.445268687449477, 0.23248690521995 ], [ 7.294810589284886, 0.037798283974119 ], [ 8.170909384891132, 0.329831215842866 ], [ 8.268253695514048, -1.130333443500881 ], [ 9.24169680174321, -3.077219655959205 ], [ 10.117795597349463, -4.050662762188367 ], [ 11.188583014201541, -5.997548974646698 ], [ 11.577960256693203, -7.457713633990444 ], [ 11.675304567316118, -9.307255535825853 ], [ 12.259370431053618, -10.37804295267793 ], [ 12.454059052299449, -11.059453127038346 ], [ 12.843436294791118, -12.032896233267508 ], [ -36.023407637912889, -10.767420195169599 ], [ -36.023407637912889, -10.767420195169599 ], [ -36.023407637912889, -10.767420195169599 ], [ -36.023407637912889, -10.767420195169599 ], [ -36.023407637912889, -1.227677754123796 ] ] ] ] } },
{ "type": "Feature", "properties": { "fid": 3, "id": 2, "Phenomene": "RR", "Seuil_code": "RR>50mm/24h", "Seuil_val": 50.0, "Unite": "mm", "Echeance": "J4", "Date_val": "2026-08-15", "Couleur_ph": "#36e541", "Commentair": "Zone de pluies > 50mm/24h", "FF>60km:h_prob": null, "layer": "RR>50mm:24h", "path": "/Users/user/Desktop/RSMC/Afrique de l'ouest/SWFDP/RR_50mm_24h.shp" }, "geometry": { "type": "MultiPolygon", "coordinates": [ [ [ [ 5.153235755580724, 8.701441929413672 ], [ 5.153235755580724, 8.896130550659503 ], [ 6.321367483055724, 9.285507793151169 ], [ 9.533729733611963, 9.090819171905338 ], [ 12.648747673545287, 7.727998823184507 ], [ 13.622190779774449, 3.347504845153274 ], [ 11.772648877939041, 0.719208458334535 ], [ 8.268253695514048, 0.524519837088697 ], [ 5.445268687449477, 1.789995875186612 ], [ 4.471825581220308, 5.489079678857429 ], [ 5.153235755580724, 8.701441929413672 ] ] ] ] } },
{ "type": "Feature", "properties": { "fid": 4, "id": 1, "Phenomene": "T", "Seuil_code": "T>40°C", "Seuil_val": 40.0, "Unite": "°C", "Echeance": "J4", "Date_val": "2026-08-15", "Couleur_ph": "#e88d49", "Commentair": "Zone de temperature élevée !", "FF>60km:h_prob": null, "layer": "T>40°C", "path": "/Users/user/Desktop/RSMC/Afrique de l'ouest/SWFDP/T_40°C.shp" }, "geometry": { "type": "MultiPolygon", "coordinates": [ [ [ [ -14.510314990248375, 21.940268174130296 ], [ -13.536871884019213, 23.205744212228208 ], [ -13.536871884019213, 23.205744212228208 ], [ -11.49264136093797, 25.347319045932366 ], [ -9.156377905987977, 26.320762152161528 ], [ -7.014803072283819, 26.028729220292782 ], [ -5.262605481071322, 25.736696288424032 ], [ -3.99712944297341, 24.860597492817785 ], [ -3.121030647367164, 24.179187318457373 ], [ -1.758210298646333, 23.303088522851123 ], [ -0.979455813663002, 22.232301105999042 ], [ 0.870086088172407, 21.064169378524049 ], [ 3.303693853745315, 20.285414893540718 ], [ 5.347924376826562, 19.993381961671968 ], [ 7.392154899907801, 19.993381961671968 ], [ 8.365598006136963, 20.090726272294884 ], [ 8.949663869874463, 20.090726272294884 ], [ 11.675304567316118, 19.506660408557387 ], [ 11.577960256693203, 16.391642468624063 ], [ 11.577960256693203, 16.391642468624063 ], [ 8.949663869874463, 15.223510741149067 ], [ 4.569169891843231, 14.834133498657401 ], [ 0.286020224434907, 15.028822119903236 ], [ -0.979455813663002, 15.223510741149067 ], [ -3.41306357923591, 15.612887983640732 ], [ -5.554638412940072, 15.515543673017817 ], [ -8.961689284742143, 15.223510741149067 ], [ -11.589985671560886, 14.931477809280317 ], [ -13.731560505265044, 15.126166430526151 ], [ -14.510314990248375, 16.002265226132398 ], [ -14.997036543362956, 17.26774126423031 ], [ -14.899692232740041, 19.506660408557387 ], [ -14.802347922117125, 20.96682506790113 ], [ -14.510314990248375, 21.940268174130296 ] ] ] ] } }
]
}
