{"type": "FeatureCollection", "name": "carte_jour_2", "crs": {"type": "name", "properties": {"name": "urn:ogc:def:crs:OGC:1.3:CRS84"}}, "features": [{"id": "0", "type": "Feature", "properties": {"fid": 1, "id": 1, "Phenomene": "G: Vent", "Seuil_code": "G>40km/h", "Seuil_val": 40.0, "Unite": "Km/h", "Echeance": "J2", "Date_début": "2026-09-23", "Date_fin": "2026-09-24", "Couleur_ph": "#e4f520", "Commentair": "Zone de vent fort: Attention à la navigation !", "layer": "FF>40km:h", "path": "/Users/user/Desktop/RSMC/Afrique_de_ouest/SWFDP/FF_40km_h.shp"}, "geometry": {"type": "MultiPolygon", "coordinates": [[[[-26.912703294148905, 10.356202478105729], [-26.060673867218622, 11.776251522989533], [-24.71162727457901, 13.338305472361718], [-23.504585586427776, 14.261337351536188], [-21.30350956685788, 14.758354517245518], [-19.599450712997317, 14.403342256024569], [-18.463411477090276, 14.048329994803616], [-17.540379597915802, 13.054295663384956], [-17.682384502404183, 11.35023680952439], [-18.2504041203577, 9.291165694442878], [-19.883460521974076, 7.516104388338121], [-22.439548802764925, 6.309062700186889], [-24.49861991784644, 5.6700406299891775], [-26.273681223951193, 5.599038177744987], [-27.196713103125667, 5.6700406299891775], [-28.190747434544328, 6.45106760467527], [-28.048742530055947, 8.297131363024214], [-27.622727816590807, 9.788182860152208], [-27.125710650881473, 10.143195121373157], [-26.912703294148905, 10.356202478105729]]]]}}, {"id": "1", "type": "Feature", "properties": {"fid": 2, "id": 3, "Phenomene": "Hs: Houle", "Seuil_code": "Hs>2m", "Seuil_val": 2.0, "Unite": "m", "Echeance": "J2", "Date_début": "2026-09-23", "Date_fin": "2026-09-24", "Couleur_ph": "#d963d7", "Commentair": "Zone de forte houle: Attention à la navigation !", "layer": "Hs>2m", "path": "/Users/user/Desktop/RSMC/Afrique_de_ouest/SWFDP/Hs_2m.shp"}, "geometry": {"type": "MultiPolygon", "coordinates": [[[[-32.024879855730596, 18.166472224966647], [-31.172850428800313, 18.166472224966647], [-30.178816097381652, 18.166472224966647], [-28.4037547912769, 18.02446732047827], [-27.267715555369854, 16.888428084571224], [-27.267715555369854, 16.888428084571224], [-26.770698389660524, 15.681386396419992], [-25.776664058241863, 14.190334899291997], [-25.066639535799958, 14.190334899291997], [-23.788595395404535, 14.54534716051295], [-23.007568420718442, 14.758354517245518], [-22.297543898276544, 15.53938149193161], [-21.800526732567214, 16.604418275594465], [-20.80649240114855, 17.669455059257317], [-19.457445808508936, 18.166472224966647], [-18.534413929334463, 18.095469772722456], [-17.46937714567161, 17.811459963745698], [-17.185367336694853, 16.959430536815415], [-17.61138205015999, 15.46837903968742], [-18.108399215869323, 14.687352065001331], [-17.75338695464837, 13.551312829094286], [-17.185367336694853, 12.770285854408193], [-16.90135752771809, 11.847253975233723], [-16.40434036200876, 10.356202478105729], [-15.765318291811045, 9.93018776464059], [-14.771283960392385, 8.865150980977734], [-14.203264342438864, 7.800114197314883], [-14.203264342438864, 7.161092127117172], [-14.203264342438864, 6.309062700186889], [-14.913288864880766, 4.534001394082136], [-15.623313387322668, 3.2559572536867094], [-17.11436488445066, 2.474930279000617], [-19.670453165241504, 2.1199180177796677], [-22.581553707253303, 1.9069106610470996], [-24.49861991784644, 1.7649057565587185], [-26.912703294148905, 1.6229008520703374], [-28.82976950474204, 1.8359082088029055], [-30.959843072067745, 2.332925374512236], [-31.811872498998028, 2.474930279000617], [-32.09588230797479, 2.545932731244811], [-32.09588230797479, 2.545932731244811], [-32.024879855730596, 18.166472224966647]]]]}}, {"id": "2", "type": "Feature", "properties": {"fid": 3, "id": 4, "Phenomene": "RR: Pluie", "Seuil_code": "RR>50mm/24", "Seuil_val": 50.0, "Unite": "mm", "Echeance": "J2", "Date_début": "2026-09-23", "Date_fin": "2026-09-24", "Couleur_ph": "#36e541", "Commentair": "Zone de fortes pluies en 24h de cumul", "layer": "RR>50mm:24h", "path": "/Users/user/Desktop/RSMC/Afrique_de_ouest/SWFDP/RR_50mm_24h.shp"}, "geometry": {"type": "MultiPolygon", "coordinates": [[[[-15.836320744055236, -0.0811580017902287], [-15.197298673857524, 1.3388910430935752], [-14.203264342438864, 3.3269597059309035], [-12.85421774979925, 5.883047986721749], [-11.718178513892205, 7.019087222628791], [-10.795146634717735, 8.439136267512595], [-9.73010985105488, 10.001190216884776], [-8.310060806171077, 11.918256427477914], [-7.174021570264035, 13.054295663384956], [-6.463997047822133, 13.622315281338476], [-5.469962716403472, 14.97136187397809], [-6.037982334356993, 15.610383944175801], [-6.819009309043086, 16.10740110988513], [-7.458031379240797, 16.746423180082843], [-9.23309268534555, 17.669455059257317], [-10.937151539206116, 18.237474677210837], [-12.144193227357349, 18.308477129455028], [-13.493239819996962, 18.237474677210837], [-14.842286412636575, 18.237474677210837], [-16.191333005276185, 18.166472224966647], [-17.25636978893904, 18.166472224966647], [-18.037396763625132, 18.02446732047827], [-18.818423738311225, 17.243440345792177], [-19.670453165241504, 16.10740110988513], [-20.025465426462457, 13.97732754255943], [-20.309475235439216, 11.918256427477914], [-20.593485044415978, 10.49820738259411], [-20.87749485339274, 8.652143624245163], [-21.090502210125308, 7.445101936093931], [-21.161504662369502, 5.6700406299891775], [-21.23250711461369, 3.9659817761286114], [-21.23250711461369, 3.1139523491983283], [-21.161504662369502, 1.4808959475819563], [-20.66448749666017, 0.6998689728958638], [-20.167470330950838, -0.010155549546034592], [-18.818423738311225, -0.578175167499559], [-17.96639431138094, -0.578175167499559], [-16.90135752771809, -0.7201800719879401], [-16.475342814252947, -0.7201800719879401], [-15.836320744055236, -0.0811580017902287]]]]}}]}