{
"type": "FeatureCollection",
"name": "carte_jour_5",
"crs": { "type": "name", "properties": { "name": "urn:ogc:def:crs:OGC:1.3:CRS84" } },
"features": [
{ "type": "Feature", "properties": { "fid": 1, "id": 6, "Seuil_code": "Hs>2m", "Seuil_val": 2.0, "Unite": "m", "Echeance": "J5", "Date_val": "2026-08-15", "Couleur_ph": "#d963d7", "Commentair": "Zone de forte houle: Attention à la navigation !", "Phenomene": "Hs", "layer": "Hs>2m", "path": "/Users/user/Desktop/RSMC/Afrique de l'ouest/SWFDP/Hs_2m.shp" }, "geometry": { "type": "MultiPolygon", "coordinates": [ [ [ [ -34.088657672755907, -2.990840543445692 ], [ -33.726226215634981, -1.831059880658714 ], [ -32.348986678575443, -0.743765509295926 ], [ -31.044233432940096, 0.488501444915237 ], [ -30.391856810122423, 2.735576479065003 ], [ -28.289754358821028, 3.750384559003606 ], [ -27.129973696034053, 3.46043939330686 ], [ -22.708309919158708, 3.750384559003606 ], [ -18.214159850859176, 3.82287085042779 ], [ -12.995146868317782, 5.200110387487324 ], [ -10.820558125592203, 4.76519263894221 ], [ -8.790941965714993, 3.967843433276165 ], [ -6.978784680110344, 3.677898267579419 ], [ -4.296791897415464, 2.010713564823142 ], [ -2.847066068931742, 0.053583696370119 ], [ -2.194689446114069, -2.483436503476391 ], [ -2.194689446114069, -3.280785709142435 ], [ -34.088657672755907, -2.990840543445692 ] ] ] ] } },
{ "type": "Feature", "properties": { "fid": 2, "id": 2, "Seuil_code": "RR>50mm/24h", "Seuil_val": 50.0, "Unite": "mm", "Echeance": "J5", "Date_val": "2026-08-15", "Couleur_ph": "#36e541", "Commentair": "Zone de forte pluie", "Phenomene": "RR", "layer": "RR>50mm:24h", "path": "/Users/user/Desktop/RSMC/Afrique de l'ouest/SWFDP/RR_50mm_24h.shp" }, "geometry": { "type": "MultiPolygon", "coordinates": [ [ [ [ -18.64907759940429, 10.34663707860453 ], [ -19.01150905652522, 12.086308072784995 ], [ -18.866536473676849, 12.666198404178484 ], [ -16.764434022375454, 12.956143569875227 ], [ -13.285092034014525, 11.433931449967321 ], [ -11.472934748409877, 9.621774164362673 ], [ -10.748071834168016, 8.38950721015151 ], [ -10.385640377047086, 5.924973301729185 ], [ -13.06763315974197, 5.635028136032442 ], [ -15.74962594243685, 6.72232250739523 ], [ -17.851728393738245, 8.461993501575694 ], [ -18.64907759940429, 10.34663707860453 ] ] ] ] } },
{ "type": "Feature", "properties": { "fid": 3, "id": 2, "Seuil_code": "T>40°C", "Seuil_val": 40.0, "Unite": "°C", "Echeance": "J5", "Date_val": "2026-08-15", "Couleur_ph": "#e88d49", "Commentair": "Zone de forte température !", "Phenomene": "T", "layer": "T>40°C", "path": "/Users/user/Desktop/RSMC/Afrique de l'ouest/SWFDP/T_40°C.shp" }, "geometry": { "type": "MultiPolygon", "coordinates": [ [ [ [ -12.415256536924293, 23.39416953495801 ], [ -13.502550908287084, 23.756600992078944 ], [ -11.690393622682436, 26.511080066198009 ], [ -8.645969382866621, 27.01848410616731 ], [ -5.311599977354067, 27.163456689015682 ], [ 0.269844462308257, 23.684114700654757 ], [ 3.531727576396626, 22.451847746443594 ], [ 5.343884862001275, 22.524334037867781 ], [ 8.605767976089645, 21.654498540777546 ], [ 11.722678507329647, 23.104224369261267 ], [ 14.549643872872899, 22.886765494988708 ], [ 16.071855992780804, 21.582012249353362 ], [ 15.999369701356621, 18.537588009537551 ], [ 14.622130164297083, 17.305321055326388 ], [ 12.809972878692435, 16.362999266811968 ], [ 10.635384135966852, 16.290512975387784 ], [ 9.040685724634763, 15.058246021176622 ], [ 8.098363936120343, 13.970951649813831 ], [ 4.401563073486855, 12.013821781360811 ], [ 1.28465254224686, 11.433931449967321 ], [ -1.179881366175465, 11.433931449967321 ], [ -5.96397660017174, 13.825979066965459 ], [ -9.443318588532669, 15.420677478297552 ], [ -12.197797662651737, 18.102670260992433 ], [ -13.720009782559643, 20.567204169414758 ], [ -14.009954948256386, 22.741792912140337 ], [ -12.415256536924293, 23.39416953495801 ] ] ] ] } }
]
}
