{
"type": "FeatureCollection",
"name": "carte_jour_1",
"crs": { "type": "name", "properties": { "name": "urn:ogc:def:crs:OGC:1.3:CRS84" } },
"features": [
{ "type": "Feature", "properties": { "fid": 1, "id": 1, "Phenomene": "G", "Seuil_code": "G>40km/h", "Seuil_val": 40.0, "Unite": "Km/h", "Echeance": "J1", "Date_val": "2026-08-13", "Couleur_ph": "#e4f520", "Commentair": "Zone de vent fort", "FF>60km:h_prob": null, "layer": "FF>40km:h", "path": "/Users/user/Desktop/RSMC/Afrique de l'ouest/SWFDP/FF_40km_h.shp" }, "geometry": { "type": "MultiPolygon", "coordinates": [ [ [ [ -20.043486643983808, 21.771512544281386 ], [ -19.826967153098327, 22.493244180566322 ], [ -19.393928171327367, 22.709763671451803 ], [ -18.816542862299418, 22.781936835080298 ], [ -17.950464898757495, 22.781936835080298 ], [ -17.300906426101054, 21.410646726138921 ], [ -16.867867444330091, 20.400222435340012 ], [ -17.300906426101054, 19.461971308169595 ], [ -18.022638062385987, 18.595893344627672 ], [ -18.744369698670923, 18.379373853742191 ], [ -19.971313480355313, 19.101105490027127 ], [ -20.404352462126276, 19.822837126312063 ], [ -20.043486643983808, 21.771512544281386 ] ] ] ] } },
{ "type": "Feature", "properties": { "fid": 2, "id": 2, "Phenomene": "G", "Seuil_code": "G>40Km/h", "Seuil_val": 40.0, "Unite": "Km/h", "Echeance": "J1", "Date_val": "2026-08-13", "Couleur_ph": "#e4f520", "Commentair": "Zone de fort vent", "FF>60km:h_prob": null, "layer": "FF>40km:h", "path": "/Users/user/Desktop/RSMC/Afrique de l'ouest/SWFDP/FF_40km_h.shp" }, "geometry": { "type": "MultiPolygon", "coordinates": [ [ [ [ -5.274625801050561, 14.566940209549831 ], [ -5.448254101929731, 15.001010961747753 ], [ -5.6218824028089, 15.348267563506088 ], [ -5.708696553248483, 16.216409067901928 ], [ -4.059227694896386, 16.910922271418602 ], [ -1.715245633027614, 17.171364722737351 ], [ 0.021037375764067, 16.129594917462345 ], [ 0.194665676643233, 14.740568510429 ], [ -1.281174880829695, 13.351542103395655 ], [ -3.798785243577633, 13.438356253835238 ], [ -5.274625801050561, 14.566940209549831 ] ] ] ] } },
{ "type": "Feature", "properties": { "fid": 3, "id": 4, "Phenomene": "Hs", "Seuil_code": "Hs>2m", "Seuil_val": 2.0, "Unite": "m", "Echeance": "J1", "Date_val": "2026-08-13", "Couleur_ph": "#d963d7", "Commentair": "Zone de forte houle: vigilance !!", "FF>60km:h_prob": null, "layer": "Hs>2m", "path": "/Users/user/Desktop/RSMC/Afrique de l'ouest/SWFDP/Hs_2m.shp" }, "geometry": { "type": "MultiPolygon", "coordinates": [ [ [ [ -34.333773042425527, 18.740239671884659 ], [ -33.612041406140591, 19.534144471798086 ], [ -32.024231806313736, 19.606317635426581 ], [ -31.158153842771814, 18.95675916277014 ], [ -29.570344242944955, 18.307200690113696 ], [ -27.982534643118097, 19.606317635426581 ], [ -25.961686061520279, 20.616741926225494 ], [ -24.37387646169342, 20.616741926225494 ], [ -23.074759516380539, 20.761088253482477 ], [ -21.486949916553677, 19.101105490027127 ], [ -22.208681552838613, 17.72981538108575 ], [ -24.446049625321912, 17.946334871971231 ], [ -25.889512897891784, 17.368949562943282 ], [ -25.528647079749319, 16.358525272144373 ], [ -24.734742279835888, 15.708966799487932 ], [ -24.734742279835888, 15.564620472230942 ], [ -24.734742279835888, 15.348100981345464 ], [ -24.879088607092875, 15.059408326831488 ], [ -24.013010643550952, 13.904637708775592 ], [ -23.074759516380539, 14.554196181432033 ], [ -22.064335225581626, 15.708966799487932 ], [ -20.548698789383263, 16.358525272144373 ], [ -18.960889189556404, 15.708966799487932 ], [ -18.311330716899963, 14.626369345060528 ], [ -17.589599080615027, 13.832464545147097 ], [ -16.940040607958586, 12.172481781691747 ], [ -16.001789480788169, 9.357728400180498 ], [ -15.424404171760219, 8.202957782124603 ], [ -14.197460390075829, 7.120360327697199 ], [ -13.403555590162402, 1.923892546445664 ], [ -13.836594571933361, -0.674341344180107 ], [ -15.135711517246246, -2.334324107635453 ], [ -16.146135808045155, -3.272575234805871 ], [ -16.579174789816118, -3.489094725691352 ], [ -34.333773042425527, -3.416921562062861 ], [ -34.333773042425527, -3.416921562062861 ], [ -34.333773042425527, 18.740239671884659 ] ] ] ] } },
{ "type": "Feature", "properties": { "fid": 4, "id": 3, "Phenomene": "Hs", "Seuil_code": "Hs>3m", "Seuil_val": 3.0, "Unite": "m", "Echeance": "J1", "Date_val": "2026-08-13", "Couleur_ph": "#6d18b6", "Commentair": "Zone de houle dangereuse", "FF>60km:h_prob": null, "layer": "Hs>3m", "path": "/Users/user/Desktop/RSMC/Afrique de l'ouest/SWFDP/Hs_3m.shp" }, "geometry": { "type": "MultiPolygon", "coordinates": [ [ [ [ -21.775642571067653, -3.416921562062861 ], [ -34.261599878797036, -3.489094725691352 ], [ -34.261599878797036, -3.489094725691352 ], [ -34.261599878797036, 2.212585200959637 ], [ -34.189426715168544, 2.284758364588132 ], [ -32.890309769855662, 3.223009491758546 ], [ -30.2199027156014, 5.460377564241846 ], [ -27.910361479489605, 6.10993603689829 ], [ -25.889512897891784, 6.326455527783768 ], [ -22.497374207352586, 5.027338582470886 ], [ -20.837391443897239, 1.779546219188674 ], [ -20.837391443897239, -1.901285125864497 ], [ -21.342603589296694, -2.839536253034915 ], [ -21.775642571067653, -3.416921562062861 ] ] ] ] } },
{ "type": "Feature", "properties": { "fid": 5, "id": 5, "Phenomene": "RR", "Seuil_code": "RR>50mm/24h", "Seuil_val": 50.0, "Unite": "mm", "Echeance": "J1", "Date_val": "2026-08-13", "Couleur_ph": "#36e541", "Commentair": "Zone de fortes pluies en 24h de cumul", "FF>60km:h_prob": null, "layer": "RR>50mm:24h", "path": "/Users/user/Desktop/RSMC/Afrique de l'ouest/SWFDP/RR_50mm_24h.shp" }, "geometry": { "type": "MultiPolygon", "coordinates": [ [ [ [ 4.92842797147496, 7.120360327697199 ], [ 5.433640116874415, 7.409052982211172 ], [ 6.588410734930314, 7.409052982211172 ], [ 9.114471461927586, 6.759494509554731 ], [ 10.630107898125949, 5.316031236984859 ], [ 9.836203098212522, 3.367355819015533 ], [ 7.31014237121525, 2.862143673616078 ], [ 5.794505935016879, 3.367355819015533 ], [ 4.351042662447014, 5.460377564241846 ], [ 4.92842797147496, 7.120360327697199 ] ] ] ] } },
{ "type": "Feature", "properties": { "fid": 6, "id": 6, "Phenomene": "RR", "Seuil_code": "RR>50mm/24h", "Seuil_val": 50.0, "Unite": "mm", "Echeance": "J1", "Date_val": "2026-08-13", "Couleur_ph": "#36e541", "Commentair": "Zone de fortes pluies en 24h de cumul", "FF>60km:h_prob": null, "layer": "RR>50mm:24h", "path": "/Users/user/Desktop/RSMC/Afrique de l'ouest/SWFDP/RR_50mm_24h.shp" }, "geometry": { "type": "MultiPolygon", "coordinates": [ [ [ [ -20.260006134869286, 14.193330363289565 ], [ -19.754793989469832, 14.770715672317515 ], [ -19.754793989469832, 14.770715672317515 ], [ -19.754793989469832, 14.770715672317515 ], [ -18.888716025927913, 15.275927817716969 ], [ -17.589599080615027, 15.059408326831488 ], [ -16.867867444330091, 13.904637708775592 ], [ -17.156560098844064, 12.533347599834215 ], [ -17.517425916986532, 11.595096472663798 ], [ -17.806118571500509, 11.089884327264343 ], [ -19.754793989469832, 10.80119167275037 ], [ -19.754793989469832, 10.80119167275037 ], [ -20.693045116640249, 11.667269636292293 ], [ -20.765218280268741, 12.533347599834215 ], [ -20.620871953011758, 13.399425563376138 ], [ -20.260006134869286, 14.193330363289565 ] ] ] ] } },
{ "type": "Feature", "properties": { "fid": 7, "id": 8, "Phenomene": "T", "Seuil_code": "T>40°C", "Seuil_val": 40.0, "Unite": "°C", "Echeance": "J1", "Date_val": "2026-08-13", "Couleur_ph": "#e88d49", "Commentair": "Zone de temperature elevee", "FF>60km:h_prob": null, "layer": "T>40°C", "path": "/Users/user/Desktop/RSMC/Afrique de l'ouest/SWFDP/T_40°C.shp" }, "geometry": { "type": "MultiPolygon", "coordinates": [ [ [ [ -14.408636675743313, 23.586631062454202 ], [ -14.54661229324233, 26.484119029933517 ], [ -8.751636358283708, 28.829704527416766 ], [ -2.404757953329032, 27.587923969925633 ], [ 5.873779096611855, 25.242338472442384 ], [ 8.495315829093137, 25.242338472442384 ], [ 14.842194234047817, 21.654972417468002 ], [ 12.082681884067519, 18.481533214990662 ], [ 8.081388976596095, 18.619508832489672 ], [ 6.011754714110872, 17.653679509996572 ], [ 1.596534954142399, 17.929630744994597 ], [ -3.094636040824103, 18.20558197999263 ], [ -8.19973388828765, 19.17141130248573 ], [ -10.407343768271886, 19.861289389980804 ], [ -13.44280735325021, 20.965094329972928 ], [ -14.408636675743313, 23.586631062454202 ] ] ] ] } },
{ "type": "Feature", "properties": { "fid": 8, "id": 7, "Phenomene": "T", "Seuil_code": "T>45°C", "Seuil_val": 45.0, "Unite": "°C", "Echeance": "J1", "Date_val": "2026-08-13", "Couleur_ph": "#bd201e", "Commentair": "Zone de temperature extreme", "FF>60km:h_prob": null, "layer": "T>45°C", "path": "/Users/user/Desktop/RSMC/Afrique de l'ouest/SWFDP/T_45°C.shp" }, "geometry": { "type": "MultiPolygon", "coordinates": [ [ [ [ -10.660975372279648, 25.88538287110552 ], [ -10.516629045022658, 26.101902361991002 ], [ -10.372282717765671, 26.390595016504975 ], [ -8.784473117938813, 26.390595016504975 ], [ -8.351434136167853, 25.957556034734015 ], [ -7.91839515439689, 25.957556034734015 ], [ -5.103641772885645, 25.524517052963052 ], [ -4.093217482086732, 24.65843908942113 ], [ -3.876697991201254, 22.926283162337285 ], [ -4.381910136600709, 21.915858871538376 ], [ -5.175814936514136, 21.410646726138921 ], [ -7.413183008997436, 21.266300398881931 ], [ -8.49578046342484, 21.338473562510426 ], [ -9.794897408737725, 21.988032035166867 ], [ -10.660975372279648, 25.88538287110552 ] ] ] ] } }
]
}
