{"type": "FeatureCollection", "name": "carte_jour_3", "crs": {"type": "name", "properties": {"name": "urn:ogc:def:crs:OGC:1.3:CRS84"}}, "features": [{"id": "0", "type": "Feature", "properties": {"fid": 1, "id": 1, "Phenomene": "G: Vent", "Seuil_code": "G>40km/h", "Seuil_val": 40.0, "Unite": "Km/h", "Echeance": "J3", "Date_début": "2026-09-24", "Date_fin": "2026-09-25", "Couleur_ph": "#e4f520", "Commentair": "Zone de vent fort", "layer": "FF>40km:h", "path": "/Users/user/Desktop/RSMC/Afrique_de_ouest/SWFDP/FF_40km_h.shp"}, "geometry": {"type": "MultiPolygon", "coordinates": [[[[-27.125710650881473, -0.7911825242321271], [-26.131676319462812, 0.7708714251400579], [-24.072605204381297, 2.758940087977379], [-21.30350956685788, 4.036984228372802], [-18.88942619055541, 4.036984228372802], [-17.04336243220647, 2.829942540221573], [-16.191333005276185, 1.196886138605194], [-16.191333005276185, -0.5071727152553649], [-16.333337909764566, -0.7201800719879401], [-27.125710650881473, -0.7911825242321271]]]]}}, {"id": "1", "type": "Feature", "properties": {"fid": 2, "id": 4, "Phenomene": "Hs: Houle", "Seuil_code": "Hs>2m", "Seuil_val": 2.0, "Unite": "m", "Echeance": "J3", "Date_début": "2026-09-24", "Date_fin": "2026-09-25", "Couleur_ph": "#d963d7", "Commentair": "Zone de forte houle: vigilance !", "layer": "Hs>2m", "path": "/Users/user/Desktop/RSMC/Afrique_de_ouest/SWFDP/Hs_2m.shp"}, "geometry": {"type": "MultiPolygon", "coordinates": [[[[-31.882874951242215, 25.053710092653095], [-29.39778912269556, 24.414688022455383], [-27.480722912102426, 23.5626585955251], [-26.202678771707003, 21.503587480443585], [-25.13764198804415, 19.728526174338832], [-25.56365670150929, 17.882462415989888], [-26.202678771707003, 16.10740110988513], [-27.267715555369854, 15.04236432622228], [-28.90077195698623, 14.403342256024569], [-30.746835715335173, 14.61634961275714], [-31.669867594509647, 14.829356969489709], [-31.953877403486405, 14.829356969489709], [-32.024879855730596, 14.829356969489709], [-32.09588230797479, 14.829356969489709], [-32.09588230797479, 24.982707640408904], [-31.882874951242215, 25.053710092653095]]]]}}, {"id": "2", "type": "Feature", "properties": {"fid": 3, "id": 4, "Phenomene": "Hs: Houle", "Seuil_code": "Hs>2m", "Seuil_val": 2.0, "Unite": "m", "Echeance": "J3", "Date_début": "2026-09-24", "Date_fin": "2026-09-25", "Couleur_ph": "#d963d7", "Commentair": "Zone de forte houle: vigilance !", "layer": "Hs>2m", "path": "/Users/user/Desktop/RSMC/Afrique_de_ouest/SWFDP/Hs_2m.shp"}, "geometry": {"type": "MultiPolygon", "coordinates": [[[[-21.94253163705559, 12.486276045431435], [-20.80649240114855, 14.119332447047807], [-19.386443356264746, 13.764320185826858], [-18.037396763625132, 13.551312829094286], [-17.11436488445066, 12.273268688698863], [-16.68835017098552, 11.563244166256961], [-15.765318291811045, 9.717180407908018], [-14.700281508148194, 7.871116649559074], [-13.422237367752771, 5.173023464279847], [-12.996222654287628, 3.5399670626634716], [-12.428203036334107, 1.6229008520703374], [-12.428203036334107, 0.1318493549423465], [-12.78321529755506, -0.7201800719879401], [-13.28023246326439, -0.7911825242321271], [-18.747421286067034, -0.7911825242321271], [-20.38047768768341, -0.0811580017902287], [-21.800526732567214, 2.40392782675643], [-22.936565968474255, 6.096055343454317], [-23.220575777451018, 9.220163242198687], [-22.936565968474255, 11.847253975233723], [-22.297543898276544, 12.344271140943054], [-21.94253163705559, 12.486276045431435]]]]}}, {"id": "3", "type": "Feature", "properties": {"fid": 4, "id": 2, "Phenomene": "RR: Pluie", "Seuil_code": "RR>50mm/24h", "Seuil_val": 50.0, "Unite": "mm", "Echeance": "J3", "Date_début": "2026-09-24", "Date_fin": "2026-09-25", "Couleur_ph": "#36e541", "Commentair": "Zone de pluies > 50mm/24h", "layer": "RR>50mm:24h", "path": "/Users/user/Desktop/RSMC/Afrique_de_ouest/SWFDP/RR_50mm_24h.shp"}, "geometry": {"type": "MultiPolygon", "coordinates": [[[[-17.11436488445066, 13.196300567873337], [-15.836320744055236, 12.983293211140765], [-14.061259437950483, 11.847253975233723], [-12.357200584089917, 10.214197573617348], [-11.292163800427065, 9.078158337710306], [-10.440134373496782, 8.226128910780023], [-9.65910739881069, 7.37409948384974], [-9.16209023310136, 6.309062700186889], [-9.23309268534555, 5.528035725500796], [-9.446100042078122, 4.462998941837945], [-10.511136825740973, 3.1139523491983283], [-11.860183418380586, 2.332925374512236], [-14.487274151415622, 1.4808959475819563], [-16.90135752771809, 0.7708714251400579], [-19.244438451776364, 0.1318493549423465], [-21.44551447134626, -0.2941653585227968], [-23.078570872962636, -0.7201800719879401], [-24.71162727457901, -0.2941653585227968], [-26.060673867218622, 0.8418738773842449], [-26.060673867218622, 2.261922922268049], [-25.634659153753482, 4.534001394082136], [-23.433583134183586, 7.019087222628791], [-20.66448749666017, 9.220163242198687], [-19.599450712997317, 10.99522454830344], [-18.463411477090276, 12.131263784210482], [-17.96639431138094, 12.912290758896575], [-17.46937714567161, 12.983293211140765], [-17.11436488445066, 13.196300567873337]]]]}}, {"id": "4", "type": "Feature", "properties": {"fid": 5, "id": 5, "Phenomene": "RR: Pluie", "Seuil_code": "RR>50mm/24h", "Seuil_val": 50.0, "Unite": "mm", "Echeance": "J3", "Date_début": "2026-09-24", "Date_fin": "2026-09-25", "Couleur_ph": "#36e541", "Commentair": "Zone de pluies > 50mm/24h", "layer": "RR>50mm:24h", "path": "/Users/user/Desktop/RSMC/Afrique_de_ouest/SWFDP/RR_50mm_24h.shp"}, "geometry": {"type": "MultiPolygon", "coordinates": [[[[-12.428203036334107, 15.823391300908373], [-12.71221284531087, 14.758354517245518], [-12.641210393066679, 13.267303020117527], [-11.789180966136396, 11.918256427477914], [-10.298129469008401, 10.99522454830344], [-8.168055901682699, 9.93018776464059], [-4.901943098449948, 9.149160789954497], [-2.132847460926534, 9.149160789954497], [-1.5648278429730098, 9.93018776464059], [-1.5648278429730098, 11.06622700054763], [-1.5648278429730098, 11.634246618501152], [-3.552896505810338, 13.125298115629146], [-6.606001952310514, 14.261337351536188], [-8.381063258415267, 15.255371682954852], [-9.446100042078122, 16.178403562129322], [-10.724144182473545, 16.391410918861894], [-11.576173609403828, 16.391410918861894], [-11.931185870624777, 16.249406014373513], [-12.428203036334107, 15.823391300908373]]]]}}]}